start=new Date('2022-11-05T00:00:00.000Z').valueOf();
sats=[{"LAUNCH_DATE":"2020-08-18","OBJECT_NAME":"STARLINK-1631","BSTAR":"0.00023226000000","SITE":"AFETR","APOAPSIS":"548.094","ECCENTRICITY":"0.00012980","REF_FRAME":"TEME","PERIOD":"95.592","EPHEMERIS_TYPE":"0","PERIAPSIS":"546.296","DECAY_DATE":null,"MEAN_ANOMALY":"283.7087","ARG_OF_PERICENTER":"76.4047","MEAN_MOTION":"15.06406014","NORAD_CAT_ID":"46151","TLE_LINE2":"2 46151  53.0553  18.3826 0001298  76.4047 283.7087 15.06406014122294","ELEMENT_SET_NO":"999","CLASSIFICATION_TYPE":"U","TIME_SYSTEM":"UTC","MEAN_MOTION_DOT":"0.00003180","OBJECT_TYPE":"PAYLOAD","MEAN_ELEMENT_THEORY":"SGP4","COUNTRY_CODE":"US","EPOCH":"2022-11-04T13:55:09.491808","CENTER_NAME":"EARTH","RA_OF_ASC_NODE":"18.3826","MEAN_MOTION_DDOT":"0.0000000000000","REV_AT_EPOCH":"12229","SEMIMAJOR_AXIS":"6925.330","OBJECT_ID":"2020-057AL","TLE_LINE1":"1 46151U 20057AL  22308.57997097  .00003180  00000-0  23226-3 0  9999","GP_ID":"216933409","INCLINATION":"53.0553","RCS_SIZE":"LARGE","FILE":"3645105"},{"OBJECT_ID":"2020-057AM","TLE_LINE1":"1 46152U 20057AM  22308.62973253  .00002892  00000-0  21296-3 0  9998","GP_ID":"216933660","INCLINATION":"53.0550","RCS_SIZE":"LARGE","FILE":"3645105","EPOCH":"2022-11-04T15:06:48.890592","MEAN_ELEMENT_THEORY":"SGP4","COUNTRY_CODE":"US","RA_OF_ASC_NODE":"38.1749","CENTER_NAME":"EARTH","REV_AT_EPOCH":"12202","MEAN_MOTION_DDOT":"0.0000000000000","SEMIMAJOR_AXIS":"6925.335","DECAY_DATE":null,"MEAN_ANOMALY":"273.5465","ARG_OF_PERICENTER":"86.5656","MEAN_MOTION":"15.06404463","NORAD_CAT_ID":"46152","TIME_SYSTEM":"UTC","CLASSIFICATION_TYPE":"U","TLE_LINE2":"2 46152  53.0550  38.1749 0001149  86.5656 273.5465 15.06404463122023","ELEMENT_SET_NO":"999","MEAN_MOTION_DOT":"0.00002892","OBJECT_TYPE":"PAYLOAD","LAUNCH_DATE":"2020-08-18","OBJECT_NAME":"STARLINK-1634","BSTAR":"0.00021296000000","SITE":"AFETR","APOAPSIS":"547.996","PERIOD":"95.592","ECCENTRICITY":"0.00011490","REF_FRAME":"TEME","EPHEMERIS_TYPE":"0","PERIAPSIS":"546.404"},{"MEAN_MOTION_DDOT":"0.0000000000000","REV_AT_EPOCH":"12229","SEMIMAJOR_AXIS":"6925.326","CENTER_NAME":"EARTH","RA_OF_ASC_NODE":"18.3095","COUNTRY_CODE":"US","MEAN_ELEMENT_THEORY":"SGP4","EPOCH":"2022-11-04T14:21:41.544000","GP_ID":"216934400","FILE":"3645105","RCS_SIZE":"LARGE","INCLINATION":"53.0552","OBJECT_ID":"2020-057AN","TLE_LINE1":"1 46153U 20057AN  22308.59839750  .00002309  00000-0  17383-3 0  9993","EPHEMERIS_TYPE":"0","PERIAPSIS":"546.138","OBJECT_NAME":"STARLINK-1636","LAUNCH_DATE":"2020-08-18","ECCENTRICITY":"0.00015200","REF_FRAME":"TEME","PERIOD":"95.592","BSTAR":"0.00017383000000","SITE":"AFETR","APOAPSIS":"548.243","MEAN_MOTION_DOT":"0.00002309","ELEMENT_SET_NO":"999","TLE_LINE2":"2 46153  53.0552  18.3095 0001520  62.3203 297.7940 15.06407425122299","TIME_SYSTEM":"UTC","CLASSIFICATION_TYPE":"U","OBJECT_TYPE":"PAYLOAD","MEAN_ANOMALY":"297.7940","DECAY_DATE":null,"NORAD_CAT_ID":"46153","MEAN_MOTION":"15.06407425","ARG_OF_PERICENTER":"62.3203"},{"SITE":"AFETR","BSTAR":"0.00022447000000","APOAPSIS":"548.120","PERIOD":"95.591","ECCENTRICITY":"0.00013630","REF_FRAME":"TEME","LAUNCH_DATE":"2020-08-18","OBJECT_NAME":"STARLINK-1642","PERIAPSIS":"546.232","EPHEMERIS_TYPE":"0","ARG_OF_PERICENTER":"88.1330","MEAN_MOTION":"15.06412217","NORAD_CAT_ID":"46154","DECAY_DATE":null,"MEAN_ANOMALY":"271.9815","OBJECT_TYPE":"PAYLOAD","CLASSIFICATION_TYPE":"U","TIME_SYSTEM":"UTC","TLE_LINE2":"2 46154  53.0548  28.2649 0001363  88.1330 271.9815 15.06412217122168","ELEMENT_SET_NO":"999","MEAN_MOTION_DOT":"0.00003065","EPOCH":"2022-11-04T14:36:16.900416","MEAN_ELEMENT_THEORY":"SGP4","COUNTRY_CODE":"US","RA_OF_ASC_NODE":"28.2649","CENTER_NAME":"EARTH","SEMIMAJOR_AXIS":"6925.311","REV_AT_EPOCH":"12216","MEAN_MOTION_DDOT":"0.0000000000000","TLE_LINE1":"1 46154U 20057AP  22308.60852894  .00003065  00000-0  22447-3 0  9997","OBJECT_ID":"2020-057AP","INCLINATION":"53.0548","RCS_SIZE":"LARGE","FILE":"3645105","GP_ID":"216933161"},{"DECAY_DATE":null,"MEAN_ANOMALY":"302.7110","ARG_OF_PERICENTER":"57.4060","NORAD_CAT_ID":"46155","MEAN_MOTION":"15.06407077","ELEMENT_SET_NO":"999","TLE_LINE2":"2 46155  53.0558 357.2680 0001873  57.4060 302.7110 15.06407077123851","CLASSIFICATION_TYPE":"U","TIME_SYSTEM":"UTC","MEAN_MOTION_DOT":"0.00000252","OBJECT_TYPE":"PAYLOAD","LAUNCH_DATE":"2020-08-18","OBJECT_NAME":"STARLINK-1667","SITE":"AFETR","APOAPSIS":"548.489","BSTAR":"0.00003581400000","ECCENTRICITY":"0.00018730","REF_FRAME":"TEME","PERIOD":"95.592","EPHEMERIS_TYPE":"0","PERIAPSIS":"545.895","OBJECT_ID":"2020-057AQ","TLE_LINE1":"1 46155U 20057AQ  22308.83245199  .00000252  00000-0  35814-4 0  9995","GP_ID":"216932911","INCLINATION":"53.0558","RCS_SIZE":"LARGE","FILE":"3645105","MEAN_ELEMENT_THEORY":"SGP4","COUNTRY_CODE":"US","EPOCH":"2022-11-04T19:58:43.851936","CENTER_NAME":"EARTH","RA_OF_ASC_NODE":"357.2680","MEAN_MOTION_DDOT":"0.0000000000000","REV_AT_EPOCH":"12385","SEMIMAJOR_AXIS":"6925.327"},{"COUNTRY_CODE":"US","MEAN_ELEMENT_THEORY":"SGP4","EPOCH":"2022-11-04T14:58:50.915424","CENTER_NAME":"EARTH","RA_OF_ASC_NODE":"18.2074","MEAN_MOTION_DDOT":"0.0000000000000","REV_AT_EPOCH":"12355","SEMIMAJOR_AXIS":"6925.325","OBJECT_ID":"2020-057AR","TLE_LINE1":"1 46156U 20057AR  22308.62420041 -.00002767  00000-0 -16692-3 0  9991","GP_ID":"216934161","INCLINATION":"53.0540","RCS_SIZE":"LARGE","FILE":"3645105","LAUNCH_DATE":"2020-08-18","OBJECT_NAME":"STARLINK-1545","APOAPSIS":"548.329","SITE":"AFETR","BSTAR":"-0.00016692000000","REF_FRAME":"TEME","ECCENTRICITY":"0.00016440","PERIOD":"95.592","EPHEMERIS_TYPE":"0","PERIAPSIS":"546.052","DECAY_DATE":null,"MEAN_ANOMALY":"293.3011","ARG_OF_PERICENTER":"66.8151","NORAD_CAT_ID":"46156","MEAN_MOTION":"15.06407568","TLE_LINE2":"2 46156  53.0540  18.2074 0001644  66.8151 293.3011 15.06407568123552","ELEMENT_SET_NO":"999","TIME_SYSTEM":"UTC","CLASSIFICATION_TYPE":"U","MEAN_MOTION_DOT":"-0.00002767","OBJECT_TYPE":"PAYLOAD"},{"EPHEMERIS_TYPE":"0","PERIAPSIS":"545.632","OBJECT_NAME":"STARLINK-1587","LAUNCH_DATE":"2020-08-18","ECCENTRICITY":"0.00022990","REF_FRAME":"TEME","PERIOD":"95.592","APOAPSIS":"548.817","SITE":"AFETR","BSTAR":"0.00008892300000","MEAN_MOTION_DOT":"0.00001043","TLE_LINE2":"2 46157  53.0545 357.0746 0002299  44.3507 315.7666 15.06396434122622","ELEMENT_SET_NO":"999","CLASSIFICATION_TYPE":"U","TIME_SYSTEM":"UTC","OBJECT_TYPE":"PAYLOAD","MEAN_ANOMALY":"315.7666","DECAY_DATE":null,"NORAD_CAT_ID":"46157","MEAN_MOTION":"15.06396434","ARG_OF_PERICENTER":"44.3507","MEAN_MOTION_DDOT":"0.0000000000000","REV_AT_EPOCH":"12262","SEMIMAJOR_AXIS":"6925.359","CENTER_NAME":"EARTH","RA_OF_ASC_NODE":"357.0746","COUNTRY_CODE":"US","MEAN_ELEMENT_THEORY":"SGP4","EPOCH":"2022-11-04T21:02:26.612160","GP_ID":"216933900","RCS_SIZE":"LARGE","FILE":"3645105","INCLINATION":"53.0545","OBJECT_ID":"2020-057AS","TLE_LINE1":"1 46157U 20057AS  22308.87669690  .00001043  00000-0  88923-4 0  9995"},{"CENTER_NAME":"EARTH","RA_OF_ASC_NODE":"357.0839","EPOCH":"2022-11-04T20:57:07.681248","COUNTRY_CODE":"US","MEAN_ELEMENT_THEORY":"SGP4","SEMIMAJOR_AXIS":"6925.341","REV_AT_EPOCH":"12388","MEAN_MOTION_DDOT":"0.0000000000000","TLE_LINE1":"1 46158U 20057AT  22308.87300557  .00000729  00000-0  67839-4 0  9993","OBJECT_ID":"2020-057AT","FILE":"3645105","RCS_SIZE":"LARGE","INCLINATION":"53.0544","GP_ID":"216932661","PERIOD":"95.592","REF_FRAME":"TEME","ECCENTRICITY":"0.00016340","SITE":"AFETR","APOAPSIS":"548.337","BSTAR":"0.00006783900000","OBJECT_NAME":"STARLINK-1589","LAUNCH_DATE":"2020-08-18","PERIAPSIS":"546.074","EPHEMERIS_TYPE":"0","MEAN_MOTION":"15.06402620","NORAD_CAT_ID":"46158","ARG_OF_PERICENTER":"56.3377","MEAN_ANOMALY":"303.7768","DECAY_DATE":null,"OBJECT_TYPE":"PAYLOAD","MEAN_MOTION_DOT":"0.00000729","CLASSIFICATION_TYPE":"U","TIME_SYSTEM":"UTC","ELEMENT_SET_NO":"999","TLE_LINE2":"2 46158  53.0544 357.0839 0001634  56.3377 303.7768 15.06402620123889"},{"OBJECT_NAME":"STARLINK-1595","LAUNCH_DATE":"2020-08-18","ECCENTRICITY":"0.00011920","REF_FRAME":"TEME","PERIOD":"95.592","SITE":"AFETR","APOAPSIS":"548.036","BSTAR":"0.00017736000000","EPHEMERIS_TYPE":"0","PERIAPSIS":"546.385","MEAN_ANOMALY":"289.8470","DECAY_DATE":null,"NORAD_CAT_ID":"46159","MEAN_MOTION":"15.06400991","ARG_OF_PERICENTER":"70.2648","MEAN_MOTION_DOT":"0.00002361","ELEMENT_SET_NO":"999","TLE_LINE2":"2 46159  53.0569  37.5042 0001192  70.2648 289.8470 15.06400991123308","CLASSIFICATION_TYPE":"U","TIME_SYSTEM":"UTC","OBJECT_TYPE":"PAYLOAD","RA_OF_ASC_NODE":"37.5042","CENTER_NAME":"EARTH","COUNTRY_CODE":"US","MEAN_ELEMENT_THEORY":"SGP4","EPOCH":"2022-11-04T18:44:25.414944","MEAN_MOTION_DDOT":"0.0000000000000","REV_AT_EPOCH":"12330","SEMIMAJOR_AXIS":"6925.346","OBJECT_ID":"2020-057AU","TLE_LINE1":"1 46159U 20057AU  22308.78084971  .00002361  00000-0  17736-3 0  9997","GP_ID":"216933410","FILE":"3645105","RCS_SIZE":"LARGE","INCLINATION":"53.0569"},{"EPHEMERIS_TYPE":"0","PERIAPSIS":"546.181","LAUNCH_DATE":"2020-08-18","OBJECT_NAME":"STARLINK-1598","APOAPSIS":"548.271","SITE":"AFETR","BSTAR":"0.00011111000000","ECCENTRICITY":"0.00015090","REF_FRAME":"TEME","PERIOD":"95.592","TLE_LINE2":"2 46160  53.0575  18.4264 0001509  73.0936 287.0219 15.06395993123546","ELEMENT_SET_NO":"999","TIME_SYSTEM":"UTC","CLASSIFICATION_TYPE":"U","MEAN_MOTION_DOT":"0.00001374","OBJECT_TYPE":"PAYLOAD","DECAY_DATE":null,"MEAN_ANOMALY":"287.0219","ARG_OF_PERICENTER":"73.0936","NORAD_CAT_ID":"46160","MEAN_MOTION":"15.06395993","MEAN_MOTION_DDOT":"0.0000000000000","REV_AT_EPOCH":"12354","SEMIMAJOR_AXIS":"6925.361","COUNTRY_CODE":"US","MEAN_ELEMENT_THEORY":"SGP4","EPOCH":"2022-11-04T13:44:32.714304","CENTER_NAME":"EARTH","RA_OF_ASC_NODE":"18.4264","GP_ID":"216933661","INCLINATION":"53.0575","FILE":"3645105","RCS_SIZE":"LARGE","OBJECT_ID":"2020-057AV","TLE_LINE1":"1 46160U 20057AV  22308.57260086  .00001374  00000-0  11111-3 0  9993"}];
